IRIDIUM 116             
1 43072U 17083C   23349.89854854  .00000277  00000+0  91677-4 0  9996
2 43072  86.3962 344.1289 0002091  88.5512 271.5923 14.34218867313127
IRIDIUM 130             
1 43073U 17083D   23350.49476199  .00000199  00000+0  63847-4 0  9998
2 43073  86.3972 344.0661 0002300  87.8698 272.2761 14.34217744313156
IRIDIUM 151             
1 43074U 17083E   23349.91125975  .00000280  00000+0  93021-4 0  9995
2 43074  86.3964 344.1606 0002017  96.2209 263.9216 14.34216942313099
IRIDIUM 134             
1 43075U 17083F   23350.01908464  .00000285  00000+0  94590-4 0  9998
2 43075  86.3964 344.1107 0002348  87.4353 272.7112 14.34216898313076
IRIDIUM 137             
1 43076U 17083G   23349.96200135  .00000284  00000+0  94283-4 0  9999
2 43076  86.3967 344.2096 0001871  87.9408 272.2002 14.34217065313131
IRIDIUM 141             
1 43077U 17083H   23350.02540933  .00000279  00000+0  92626-4 0  9995
2 43077  86.3956 344.0647 0002414  92.9968 267.1504 14.34219236313144
IRIDIUM 153             
1 43078U 17083J   23349.97759875  .00000316  00000+0  10594-3 0  9990
2 43078  86.3958 312.5365 0002407  98.1378 262.0091 14.34218268314240
IRIDIUM 131             
1 43079U 17083K   23350.08250423  .00000281  00000+0  93400-4 0  9999
2 43079  86.3967 344.1663 0002203  94.0577 266.0871 14.34217606313089
